{"spkid": "50610052", "covariance": {"epoch": "2456743.5", "data": [["5.649047515386035E-16", "-8.066124579470248E-16", "2.447801898135672E-13", "-2.636439312509413E-14", "1.842677988489778E-13", "-1.367201731250215E-14"], ["-8.066124579470248E-16", "1.162956226415716E-15", "-3.614978661147552E-13", "4.402975029204542E-14", "-2.823617732344465E-13", "1.887265616479636E-14"], ["2.447801898135672E-13", "-3.614978661147552E-13", "6.00630611322339E-10", "-1.107771322296571E-10", "4.827903039201201E-10", "-4.844035820182844E-11"], ["-2.636439312509413E-14", "4.402975029204542E-14", "-1.107771322296571E-10", "6.335063670103284E-10", "-6.963902782321148E-10", "4.917998329193806E-11"], ["1.842677988489778E-13", "-2.823617732344465E-13", "4.827903039201201E-10", "-6.963902782321148E-10", "9.999849935256408E-10", "-7.680952847008717E-11"], ["-1.367201731250215E-14", "1.887265616479636E-14", "-4.844035820182844E-11", "4.917998329193806E-11", "-7.680952847008717E-11", "9.046365388096506E-11"]], "elements": [{"value": ".3689378982093689", "title": "eccentricity", "units": null, "name": "e", "sigma": 2.37677249971175e-08, "label": "e"}, {"label": "q", "name": "q", "sigma": 3.41021440149401e-08, "title": "perihelion distance", "value": ".8999797981312128", "units": "au"}, {"label": "tp", "units": "TDB", "title": "time of perihelion passage", "value": "2456942.608491311363", "name": "tp", "sigma": 2.45077663470651e-05}, {"units": "deg", "value": "201.133867822913", "title": "longitude of the ascending node", "name": "om", "sigma": 2.51695523800152e-05, "label": "node"}, {"units": "deg", "title": "argument of perihelion", "value": "282.2887281554644", "sigma": 3.16225393276005e-05, "name": "w", "label": "peri"}, {"label": "i", "title": "inclination", "value": "6.127733936446273", "units": "deg", "sigma": 9.51123829377464e-06, "name": "i"}], "labels": ["e", "q", "tp", "node", "peri", "i"]}, "elements": [{"units": null, "title": "eccentricity", "value": ".368890875204118", "sigma": "2.3755E-8", "name": "e", "label": "e"}, {"units": "au", "value": "1.425810852291507", "title": "semi-major axis", "sigma": "4.6988E-9", "name": "a", "label": "a"}, {"units": "au", "title": "perihelion distance", "value": ".8998422391141634", "sigma": "3.4145E-8", "name": "q", "label": "q"}, {"title": "inclination; angle with respect to x-y ecliptic plane", "value": "6.131008297985156", "units": "deg", "name": "i", "sigma": "9.512E-6", "label": "i"}, {"sigma": "2.5159E-5", "name": "om", "title": "longitude of the ascending node", "value": "201.0254016877782", "units": "deg", "label": "node"}, {"label": "peri", "sigma": "3.1628E-5", "name": "w", "value": "282.4577006888696", "title": "argument of perihelion", "units": "deg"}, {"label": "M", "units": "deg", "title": "mean anomaly", "value": "304.0312637860395", "name": "ma", "sigma": "1.7953E-5"}, {"label": "tp", "value": "2461297.179478825213", "title": "time of perihelion passage", "units": "TDB", "sigma": "3.1295E-5", "name": "tp"}, {"label": "period", "value": "621.8581074266837", "title": "sidereal orbital period", "units": "d", "sigma": "3.074E-6", "name": "per"}, {"sigma": "2.8617E-9", "name": "n", "units": "deg/d", "title": "mean motion", "value": ".5789101978419467", "label": "n"}, {"label": "Q", "sigma": "6.4322E-9", "name": "ad", "units": "au", "value": "1.95177946546885", "title": "aphelion distance"}], "epoch": "2461200.5"}